[{"OBJECT_NAME":"LILIUM-1","OBJECT_ID":"2023-185F","EPOCH":"2026-03-09T22:28:56.680896","MEAN_MOTION":15.66968582,"ECCENTRICITY":0.00057383,"INCLINATION":97.3316,"RA_OF_ASC_NODE":147.7332,"ARG_OF_PERICENTER":186.5847,"MEAN_ANOMALY":173.5339,"EPHEMERIS_TYPE":0,"CLASSIFICATION_TYPE":"U","NORAD_CAT_ID":58467,"ELEMENT_SET_NO":999,"REV_AT_EPOCH":12691,"BSTAR":0.0013028575,"MEAN_MOTION_DOT":0.00140249,"MEAN_MOTION_DDOT":0},{"OBJECT_NAME":"STARLINK-11230 [DTC]","OBJECT_ID":"2024-164D","EPOCH":"2026-03-09T21:32:47.206176","MEAN_MOTION":15.69716013,"ECCENTRICITY":5.109e-5,"INCLINATION":53.1584,"RA_OF_ASC_NODE":310.0892,"ARG_OF_PERICENTER":73.1775,"MEAN_ANOMALY":286.9299,"EPHEMERIS_TYPE":0,"CLASSIFICATION_TYPE":"U","NORAD_CAT_ID":61053,"ELEMENT_SET_NO":999,"REV_AT_EPOCH":8545,"BSTAR":6.6833991e-5,"MEAN_MOTION_DOT":7.518e-5,"MEAN_MOTION_DDOT":0}]
